ICOR SV                 
1 68127U 26046A   26091.21030392  .00460646  12195-4  61960-3 0  9993
2 68127 123.0744 308.7177 0095624 229.0538 130.2231 15.97332299  3189
FIREFLY ALPHA R/B       
1 68128U 26046B   26091.04805837  .00044450  00000+0  59296-3 0  9996
2 68128 123.0933 303.6646 0016768  24.3733 335.8117 15.57541444  3120
GUOWANG GROUP 20 OBJECT*
1 68129U 26047A   26086.61766448 -.00000101  00000+0  34814-4 0  9995
2 68129  50.0073 357.5704 0001326 229.8596 130.2189 13.95400488  2083
GUOWANG GROUP 20 OBJECT*
1 68130U 26047B   26085.75628566 -.00000072  00000+0  55036-4 0  9995
2 68130  50.0066   1.0171 0000428 307.3036  52.7826 13.96591410  1957
GUOWANG GROUP 20 OBJECT*
1 68131U 26047C   26085.82615450 -.00000111  00000+0  27090-4 0  9995
2 68131  49.9996   0.7054 0000048  49.5998 310.4907 13.96862690  1970
GUOWANG GROUP 20 OBJECT*
1 68132U 26047D   26083.82212781 -.00000102  00000+0  32409-4 0  9994
2 68132  50.0048   8.7665 0002416   7.3102 352.7836 14.00513037  1680
GUOWANG GROUP 20 OBJECT*
1 68133U 26047E   26089.09734757 -.00000106  00000+0  29276-4 0  9994
2 68133  49.9775 347.4440 0030769  44.8262 315.5120 14.01483768  2439
GUOWANG GROUP 20 OBJECT*
1 68134U 26047F   26083.10517479 -.00000032  00000+0  77668-4 0  9997
2 68134  50.0123  11.6502 0000475 222.9253 137.1614 14.01903676  1585
GUOWANG GROUP 20 OBJECT*
1 68135U 26047G   26085.74432800  .00000018  00000+0  11069-3 0  9999
2 68135  50.0409   0.8903 0004806 213.0056 147.0548 14.01583953  1962
GUOWANG GROUP 20 OBJECT*
1 68136U 26047H   26084.03205513 -.00000099  00000+0  33918-4 0  9998
2 68136  49.9530   7.8688 0014532 103.7924 256.4596 14.01074305  1715
GUOWANG GROUP 20 OBJECT*
1 68137U 26047J   26088.24973303 -.00000122  00000+0  19245-4 0  9999
2 68137  50.0061 350.8887 0000982 211.4979 148.5862 13.93924120  2314
CZ-8A R/B               
1 68138U 26047K   26091.18888796 -.00000095  00000+0  31659-4 0  9990
2 68138  49.9536 337.6391 0044754 215.5591 144.2331 14.12232437  2737
CZ-2D R/B               
1 68141U 26048C   26091.14730088  .00002389  00000+0  21343-3 0  9996
2 68141  35.1311   9.1769 0015411 164.0129 196.1068 14.95577994  2860
STARLINK-36604          
1 68142U 26049A   26091.16671296 -.00008288  00000+0 -54715-4 0  9991
2 68142  97.2838 111.5365 0001324  90.9056  50.9917 15.75203680  4249
